STRATOSAT-TK1-E (RS52SE)
1 57323U 23091AX  26068.96730763  .00166875  00000-0  15355-2 0  9992
2 57323  97.5095 145.9713 0002847  39.3250 320.8217 15.67135623147981
ARCTICSAT-1 (RS74S)
1 61762U 24199AD  26068.95124412  .00112957  00000-0  11044-2 0  9994
2 61762  97.3086 307.2864 0003486 247.2949 112.7943 15.65786404122430
