[{"OBJECT_NAME":"ARCTICSAT 1 (RS74S)","OBJECT_ID":"2024-199AD","EPOCH":"2026-03-09T22:49:47.491968","MEAN_MOTION":15.65786404,"ECCENTRICITY":0.00034861,"INCLINATION":97.3086,"RA_OF_ASC_NODE":307.2864,"ARG_OF_PERICENTER":247.2949,"MEAN_ANOMALY":112.7943,"EPHEMERIS_TYPE":0,"CLASSIFICATION_TYPE":"U","NORAD_CAT_ID":61762,"ELEMENT_SET_NO":999,"REV_AT_EPOCH":12243,"BSTAR":0.0011044428,"MEAN_MOTION_DOT":0.00112957,"MEAN_MOTION_DDOT":0},{"OBJECT_NAME":"OBJECT AX","OBJECT_ID":"2023-091AX","EPOCH":"2026-03-09T23:12:55.379232","MEAN_MOTION":15.67135623,"ECCENTRICITY":0.0002847,"INCLINATION":97.5095,"RA_OF_ASC_NODE":145.9713,"ARG_OF_PERICENTER":39.325,"MEAN_ANOMALY":320.8217,"EPHEMERIS_TYPE":0,"CLASSIFICATION_TYPE":"U","NORAD_CAT_ID":57323,"ELEMENT_SET_NO":999,"REV_AT_EPOCH":14798,"BSTAR":0.0015354592,"MEAN_MOTION_DOT":0.00166875,"MEAN_MOTION_DDOT":0}]
